[{"OBJECT_NAME":"STARLINK-32137","OBJECT_ID":"2024-120W","EPOCH":"2026-03-09T22:25:20.489088","MEAN_MOTION":15.30164126,"ECCENTRICITY":0.00011806,"INCLINATION":53.1599,"RA_OF_ASC_NODE":318.7857,"ARG_OF_PERICENTER":75.4191,"MEAN_ANOMALY":284.694,"EPHEMERIS_TYPE":0,"CLASSIFICATION_TYPE":"U","NORAD_CAT_ID":60155,"ELEMENT_SET_NO":999,"REV_AT_EPOCH":9641,"BSTAR":-0.00026647598,"MEAN_MOTION_DOT":-8.234e-5,"MEAN_MOTION_DDOT":0},{"OBJECT_NAME":"YAOGAN-43 01F","OBJECT_ID":"2024-148F","EPOCH":"2026-03-10T00:23:08.877408","MEAN_MOTION":15.29824616,"ECCENTRICITY":0.00057048,"INCLINATION":34.9925,"RA_OF_ASC_NODE":59.8891,"ARG_OF_PERICENTER":18.4862,"MEAN_ANOMALY":341.6062,"EPHEMERIS_TYPE":0,"CLASSIFICATION_TYPE":"U","NORAD_CAT_ID":60463,"ELEMENT_SET_NO":999,"REV_AT_EPOCH":8707,"BSTAR":0.00058388219,"MEAN_MOTION_DOT":0.00017308,"MEAN_MOTION_DDOT":0}]
